{"fetched_at":"2026-07-15T17:46:48.171Z","source":"https://celestrak.org/NORAD/elements/gp.php?GROUP=planet&FORMAT=JSON","constellation":"superdove","records":[{"OBJECT_NAME":"FLOCK 4BE-3","OBJECT_ID":"2024-149CX","EPOCH":"2026-07-15T04:20:07.334880","CLASSIFICATION_TYPE":"U","MEAN_MOTION":15.42393675,"ECCENTRICITY":0.0005065,"INCLINATION":97.3694,"RA_OF_ASC_NODE":280.3761,"ARG_OF_PERICENTER":168.4191,"MEAN_ANOMALY":191.7174,"EPHEMERIS_TYPE":0,"NORAD_CAT_ID":60561,"ELEMENT_SET_NO":999,"REV_AT_EPOCH":10665,"BSTAR":0.00024343,"MEAN_MOTION_DOT":0.00010432,"MEAN_MOTION_DDOT":0},{"OBJECT_NAME":"FLOCK 4BE-19","OBJECT_ID":"2024-149CZ","EPOCH":"2026-07-15T04:05:01.550112","CLASSIFICATION_TYPE":"U","MEAN_MOTION":15.45647833,"ECCENTRICITY":0.0005992,"INCLINATION":97.3754,"RA_OF_ASC_NODE":282.0471,"ARG_OF_PERICENTER":176.4894,"MEAN_ANOMALY":183.6398,"EPHEMERIS_TYPE":0,"NORAD_CAT_ID":60563,"ELEMENT_SET_NO":999,"REV_AT_EPOCH":10674,"BSTAR":0.00032943,"MEAN_MOTION_DOT":0.00015808,"MEAN_MOTION_DDOT":0},{"OBJECT_NAME":"FLOCK 4G-8","OBJECT_ID":"2025-009E","EPOCH":"2026-07-15T03:25:03.347040","CLASSIFICATION_TYPE":"U","MEAN_MOTION":15.30242853,"ECCENTRICITY":0.0004052,"INCLINATION":97.4008,"RA_OF_ASC_NODE":278.0377,"ARG_OF_PERICENTER":192.3987,"MEAN_ANOMALY":167.7155,"EPHEMERIS_TYPE":0,"NORAD_CAT_ID":62613,"ELEMENT_SET_NO":999,"REV_AT_EPOCH":8319,"BSTAR":0.0001985,"MEAN_MOTION_DOT":0.00005732,"MEAN_MOTION_DDOT":0},{"OBJECT_NAME":"FLOCK 4G-13","OBJECT_ID":"2025-009N","EPOCH":"2026-07-15T03:54:27.635904","CLASSIFICATION_TYPE":"U","MEAN_MOTION":15.48894902,"ECCENTRICITY":0.0006512,"INCLINATION":97.3952,"RA_OF_ASC_NODE":280.0152,"ARG_OF_PERICENTER":198.6261,"MEAN_ANOMALY":161.4753,"EPHEMERIS_TYPE":0,"NORAD_CAT_ID":62621,"ELEMENT_SET_NO":999,"REV_AT_EPOCH":8332,"BSTAR":0.00098544,"MEAN_MOTION_DOT":0.00053357,"MEAN_MOTION_DDOT":0},{"OBJECT_NAME":"FLOCK 4G-9","OBJECT_ID":"2025-009P","EPOCH":"2026-07-15T03:57:41.424192","CLASSIFICATION_TYPE":"U","MEAN_MOTION":15.28509035,"ECCENTRICITY":0.0004063,"INCLINATION":97.3961,"RA_OF_ASC_NODE":276.9152,"ARG_OF_PERICENTER":205.0173,"MEAN_ANOMALY":155.0871,"EPHEMERIS_TYPE":0,"NORAD_CAT_ID":62622,"ELEMENT_SET_NO":999,"REV_AT_EPOCH":8313,"BSTAR":0.00019653,"MEAN_MOTION_DOT":0.00005378,"MEAN_MOTION_DDOT":0},{"OBJECT_NAME":"FLOCK 4G-7","OBJECT_ID":"2025-009R","EPOCH":"2026-07-15T04:36:20.153088","CLASSIFICATION_TYPE":"U","MEAN_MOTION":15.29875939,"ECCENTRICITY":0.0002591,"INCLINATION":97.3945,"RA_OF_ASC_NODE":277.3587,"ARG_OF_PERICENTER":181.9581,"MEAN_ANOMALY":178.1649,"EPHEMERIS_TYPE":0,"NORAD_CAT_ID":62624,"ELEMENT_SET_NO":999,"REV_AT_EPOCH":8318,"BSTAR":0.00020689,"MEAN_MOTION_DOT":0.00005909,"MEAN_MOTION_DDOT":0},{"OBJECT_NAME":"FLOCK 4G-12","OBJECT_ID":"2025-009S","EPOCH":"2026-07-15T04:29:30.579936","CLASSIFICATION_TYPE":"U","MEAN_MOTION":15.29771941,"ECCENTRICITY":0.0004164,"INCLINATION":97.4024,"RA_OF_ASC_NODE":277.9034,"ARG_OF_PERICENTER":188.6176,"MEAN_ANOMALY":171.4993,"EPHEMERIS_TYPE":0,"NORAD_CAT_ID":62625,"ELEMENT_SET_NO":999,"REV_AT_EPOCH":8318,"BSTAR":0.00021255,"MEAN_MOTION_DOT":0.00006054,"MEAN_MOTION_DDOT":0},{"OBJECT_NAME":"FLOCK 4G-11","OBJECT_ID":"2025-009W","EPOCH":"2026-07-15T04:07:42.744000","CLASSIFICATION_TYPE":"U","MEAN_MOTION":15.29882122,"ECCENTRICITY":0.0002641,"INCLINATION":97.3924,"RA_OF_ASC_NODE":277.4468,"ARG_OF_PERICENTER":184.4495,"MEAN_ANOMALY":175.6722,"EPHEMERIS_TYPE":0,"NORAD_CAT_ID":62629,"ELEMENT_SET_NO":999,"REV_AT_EPOCH":8319,"BSTAR":0.00022735,"MEAN_MOTION_DOT":0.00006502,"MEAN_MOTION_DDOT":0},{"OBJECT_NAME":"FLOCK 4G-26","OBJECT_ID":"2025-009AA","EPOCH":"2026-07-15T04:27:15.992928","CLASSIFICATION_TYPE":"U","MEAN_MOTION":15.3007032,"ECCENTRICITY":0.0003651,"INCLINATION":97.4019,"RA_OF_ASC_NODE":278.063,"ARG_OF_PERICENTER":177.6334,"MEAN_ANOMALY":182.4924,"EPHEMERIS_TYPE":0,"NORAD_CAT_ID":62633,"ELEMENT_SET_NO":999,"REV_AT_EPOCH":8319,"BSTAR":0.00023113,"MEAN_MOTION_DOT":0.00006651,"MEAN_MOTION_DDOT":0},{"OBJECT_NAME":"FLOCK 4G-28","OBJECT_ID":"2025-009AB","EPOCH":"2026-07-15T05:11:44.949408","CLASSIFICATION_TYPE":"U","MEAN_MOTION":15.35281323,"ECCENTRICITY":0.0002098,"INCLINATION":97.403,"RA_OF_ASC_NODE":280.8789,"ARG_OF_PERICENTER":162.3574,"MEAN_ANOMALY":197.7743,"EPHEMERIS_TYPE":0,"NORAD_CAT_ID":62634,"ELEMENT_SET_NO":999,"REV_AT_EPOCH":8338,"BSTAR":0.00015041,"MEAN_MOTION_DOT":0.00005071,"MEAN_MOTION_DDOT":0},{"OBJECT_NAME":"FLOCK 4G-24","OBJECT_ID":"2025-009AE","EPOCH":"2026-07-15T04:43:29.466048","CLASSIFICATION_TYPE":"U","MEAN_MOTION":15.30367406,"ECCENTRICITY":0.0003699,"INCLINATION":97.4027,"RA_OF_ASC_NODE":278.3792,"ARG_OF_PERICENTER":165.7679,"MEAN_ANOMALY":194.3666,"EPHEMERIS_TYPE":0,"NORAD_CAT_ID":62637,"ELEMENT_SET_NO":999,"REV_AT_EPOCH":8321,"BSTAR":0.00020039,"MEAN_MOTION_DOT":0.00005809,"MEAN_MOTION_DDOT":0},{"OBJECT_NAME":"FLOCK 4G-3","OBJECT_ID":"2025-009AG","EPOCH":"2026-07-15T04:33:40.784832","CLASSIFICATION_TYPE":"U","MEAN_MOTION":15.29873125,"ECCENTRICITY":0.0003233,"INCLINATION":97.4027,"RA_OF_ASC_NODE":278.0804,"ARG_OF_PERICENTER":169.8414,"MEAN_ANOMALY":190.2892,"EPHEMERIS_TYPE":0,"NORAD_CAT_ID":62639,"ELEMENT_SET_NO":999,"REV_AT_EPOCH":8318,"BSTAR":0.00021471,"MEAN_MOTION_DOT":0.00006135,"MEAN_MOTION_DDOT":0},{"OBJECT_NAME":"FLOCK 4G-27","OBJECT_ID":"2025-009AJ","EPOCH":"2026-07-15T03:27:40.672800","CLASSIFICATION_TYPE":"U","MEAN_MOTION":15.2980761,"ECCENTRICITY":0.0002555,"INCLINATION":97.3937,"RA_OF_ASC_NODE":277.3831,"ARG_OF_PERICENTER":169.9602,"MEAN_ANOMALY":190.169,"EPHEMERIS_TYPE":0,"NORAD_CAT_ID":62641,"ELEMENT_SET_NO":999,"REV_AT_EPOCH":8317,"BSTAR":0.00019468,"MEAN_MOTION_DOT":0.00005544,"MEAN_MOTION_DDOT":0},{"OBJECT_NAME":"FLOCK 4G-29","OBJECT_ID":"2025-009AK","EPOCH":"2026-07-14T19:15:38.700864","CLASSIFICATION_TYPE":"U","MEAN_MOTION":15.29857286,"ECCENTRICITY":0.00033705,"INCLINATION":97.4023,"RA_OF_ASC_NODE":277.6542,"ARG_OF_PERICENTER":168.0763,"MEAN_ANOMALY":192.0558,"EPHEMERIS_TYPE":0,"NORAD_CAT_ID":62642,"ELEMENT_SET_NO":999,"REV_AT_EPOCH":8312,"BSTAR":0.00018059336,"MEAN_MOTION_DOT":0.00005145,"MEAN_MOTION_DDOT":0},{"OBJECT_NAME":"FLOCK 4G-22","OBJECT_ID":"2025-009AN","EPOCH":"2026-07-15T05:07:20.903232","CLASSIFICATION_TYPE":"U","MEAN_MOTION":15.29773132,"ECCENTRICITY":0.000296,"INCLINATION":97.4009,"RA_OF_ASC_NODE":278.0977,"ARG_OF_PERICENTER":162.743,"MEAN_ANOMALY":197.3911,"EPHEMERIS_TYPE":0,"NORAD_CAT_ID":62645,"ELEMENT_SET_NO":999,"REV_AT_EPOCH":8320,"BSTAR":0.00020891,"MEAN_MOTION_DOT":0.00005949,"MEAN_MOTION_DDOT":0},{"OBJECT_NAME":"FLOCK 4G-25","OBJECT_ID":"2025-009AP","EPOCH":"2026-07-15T04:29:32.192160","CLASSIFICATION_TYPE":"U","MEAN_MOTION":15.30009647,"ECCENTRICITY":0.0002408,"INCLINATION":97.4018,"RA_OF_ASC_NODE":278.1502,"ARG_OF_PERICENTER":161.933,"MEAN_ANOMALY":198.1996,"EPHEMERIS_TYPE":0,"NORAD_CAT_ID":62646,"ELEMENT_SET_NO":999,"REV_AT_EPOCH":8320,"BSTAR":0.0002085,"MEAN_MOTION_DOT":0.0000598,"MEAN_MOTION_DDOT":0}]}
