FLOCK 4BE-3             
1 60561U 24149CX  26196.18064045  .00010432  00000+0  24343-3 0  9998
2 60561  97.3694 280.3761 0005065 168.4191 191.7174 15.42393675106654
FLOCK 4BE-19            
1 60563U 24149CZ  26196.17015683  .00015808  00000+0  32943-3 0  9990
2 60563  97.3754 282.0471 0005992 176.4894 183.6398 15.45647833106747
FLOCK 4G-8              
1 62613U 25009E   26196.14239985  .00005732  00000+0  19850-3 0  9991
2 62613  97.4008 278.0377 0004052 192.3987 167.7155 15.30242853 83198
FLOCK 4G-13             
1 62621U 25009N   26196.16281986  .00053357  00000+0  98544-3 0  9993
2 62621  97.3952 280.0152 0006512 198.6261 161.4753 15.48894902 83322
FLOCK 4G-9              
1 62622U 25009P   26196.16506278  .00005378  00000+0  19653-3 0  9992
2 62622  97.3961 276.9152 0004063 205.0173 155.0871 15.28509035 83138
FLOCK 4G-7              
1 62624U 25009R   26196.19189992  .00005909  00000+0  20689-3 0  9998
2 62624  97.3945 277.3587 0002591 181.9581 178.1649 15.29875939 83182
FLOCK 4G-12             
1 62625U 25009S   26196.18715949  .00006054  00000+0  21255-3 0  9997
2 62625  97.4024 277.9034 0004164 188.6176 171.4993 15.29771941 83183
FLOCK 4G-11             
1 62629U 25009W   26196.17202250  .00006502  00000+0  22735-3 0  9998
2 62629  97.3924 277.4468 0002641 184.4495 175.6722 15.29882122 83198
FLOCK 4G-26             
1 62633U 25009AA  26196.18560177  .00006651  00000+0  23113-3 0  9995
2 62633  97.4019 278.0630 0003651 177.6334 182.4924 15.30070320 83196
FLOCK 4G-28             
1 62634U 25009AB  26196.21649247  .00005071  00000+0  15041-3 0  9992
2 62634  97.4030 280.8789 0002098 162.3574 197.7743 15.35281323 83388
FLOCK 4G-24             
1 62637U 25009AE  26196.19686882  .00005809  00000+0  20039-3 0  9990
2 62637  97.4027 278.3792 0003699 165.7679 194.3666 15.30367406 83215
FLOCK 4G-3              
1 62639U 25009AG  26196.19005538  .00006135  00000+0  21471-3 0  9999
2 62639  97.4027 278.0804 0003233 169.8414 190.2892 15.29873125 83184
FLOCK 4G-27             
1 62641U 25009AJ  26196.14422075  .00005544  00000+0  19468-3 0  9992
2 62641  97.3937 277.3831 0002555 169.9602 190.1690 15.29807610 83174
FLOCK 4G-29             
1 62642U 25009AK  26195.80253126  .00005145  00000+0  18059-3 0  9996
2 62642  97.4023 277.6542 0003370 168.0763 192.0558 15.29857286 83121
FLOCK 4G-22             
1 62645U 25009AN  26196.21343638  .00005949  00000+0  20891-3 0  9992
2 62645  97.4009 278.0977 0002960 162.7430 197.3911 15.29773132 83208
FLOCK 4G-25             
1 62646U 25009AP  26196.18717815  .00005980  00000+0  20850-3 0  9991
2 62646  97.4018 278.1502 0002408 161.9330 198.1996 15.30009647 83208
